{
  "norad_id": 50169,
  "name": "STARLINK-3301",
  "history": [
    {
      "epoch": "2026-03-28T16:35:49.585632Z",
      "apogee_km": 540.6390787480477,
      "perigee_km": 538.8542647607346,
      "latitude_deg": 2.9825221605885165e-05,
      "longitude_deg": 88.7514605619031,
      "height_km": 540.8012784993958,
      "semi_major_axis_km": 6917.883671754391,
      "eccentricity": 0.000129,
      "inclination_deg": 53.217,
      "raan_deg": 163.8164,
      "arg_perigee_deg": 100.2518,
      "mean_anomaly_deg": 259.862,
      "mean_motion_rev_day": 15.08838926
    }
  ]
}