{"fetched_at":"2026-03-29T16:36:15Z","count":15609,"tles":[{"name":"STARLINK-3301","line1":"1 50169U 21125P   26087.69154613  .00000530  00000+0  51377-4 0  9994","line2":"2 50169  53.2170 163.8164 0001290 100.2518 259.8620 15.08838926239476","category":"Starlink"}]}